{
  "links" : {
    "next" : "https://api.nasa.gov/neo/rest/v1/feed?start_date=2010-05-09&end_date=2010-05-09&detailed=true&api_key=t0TVs3DtDT2H8Oy2Zy8m2eVrNsAVKAexjcZXUckd",
    "prev" : "https://api.nasa.gov/neo/rest/v1/feed?start_date=2010-05-07&end_date=2010-05-07&detailed=true&api_key=t0TVs3DtDT2H8Oy2Zy8m2eVrNsAVKAexjcZXUckd",
    "self" : "https://api.nasa.gov/neo/rest/v1/feed?start_date=2010-05-08&end_date=2010-05-08&detailed=true&api_key=t0TVs3DtDT2H8Oy2Zy8m2eVrNsAVKAexjcZXUckd"
  },
  "element_count" : 8,
  "near_earth_objects" : {
    "2010-05-08" : [ {
      "links" : {
        "self" : "https://api.nasa.gov/neo/rest/v1/neo/3548887?api_key=t0TVs3DtDT2H8Oy2Zy8m2eVrNsAVKAexjcZXUckd"
      },
      "neo_reference_id" : "3548887",
      "name" : "(2010 TE55)",
      "nasa_jpl_url" : "http://ssd.jpl.nasa.gov/sbdb.cgi?sstr=3548887",
      "absolute_magnitude_h" : 28.0,
      "estimated_diameter" : {
        "kilometers" : {
          "estimated_diameter_min" : 0.0066765941,
          "estimated_diameter_max" : 0.0149293183
        },
        "meters" : {
          "estimated_diameter_min" : 6.676594135,
          "estimated_diameter_max" : 14.9293183439
        },
        "miles" : {
          "estimated_diameter_min" : 0.004148642,
          "estimated_diameter_max" : 0.0092766455
        },
        "feet" : {
          "estimated_diameter_min" : 21.9048371017,
          "estimated_diameter_max" : 48.9807047955
        }
      },
      "is_potentially_hazardous_asteroid" : false,
      "close_approach_data" : [ {
        "close_approach_date" : "2010-05-08",
        "epoch_date_close_approach" : 1273302000000,
        "relative_velocity" : {
          "kilometers_per_second" : "3.3407363736",
          "kilometers_per_hour" : "12026.6509450149",
          "miles_per_hour" : "7472.8931941399"
        },
        "miss_distance" : {
          "astronomical" : "0.1410845321",
          "lunar" : "54.8818855286",
          "kilometers" : "21105946",
          "miles" : "13114627"
        },
        "orbiting_body" : "Earth"
      } ],
      "orbital_data" : {
        "orbit_id" : "13",
        "orbit_determination_date" : "2017-04-06 08:56:18",
        "orbit_uncertainty" : "4",
        "minimum_orbit_intersection" : ".00193815",
        "jupiter_tisserand_invariant" : "6.328",
        "epoch_osculation" : "2458000.5",
        "eccentricity" : ".127339995807201",
        "semi_major_axis" : ".9494155716792541",
        "inclination" : "1.154579117801091",
        "ascending_node_longitude" : "198.1029365066751",
        "orbital_period" : "337.8959236738614",
        "perihelion_distance" : ".8285169967623265",
        "perihelion_argument" : "305.0126076763744",
        "aphelion_distance" : "1.070314146596182",
        "perihelion_time" : "2457951.490608186643",
        "mean_anomaly" : "52.21543030462242",
        "mean_motion" : "1.065416818545208",
        "equinox" : "J2000"
      }
    }, {
      "links" : {
        "self" : "https://api.nasa.gov/neo/rest/v1/neo/3551067?api_key=t0TVs3DtDT2H8Oy2Zy8m2eVrNsAVKAexjcZXUckd"
      },
      "neo_reference_id" : "3551067",
      "name" : "(2010 VD72)",
      "nasa_jpl_url" : "http://ssd.jpl.nasa.gov/sbdb.cgi?sstr=3551067",
      "absolute_magnitude_h" : 21.5,
      "estimated_diameter" : {
        "kilometers" : {
          "estimated_diameter_min" : 0.1332155667,
          "estimated_diameter_max" : 0.2978790628
        },
        "meters" : {
          "estimated_diameter_min" : 133.2155666981,
          "estimated_diameter_max" : 297.8790627982
        },
        "miles" : {
          "estimated_diameter_min" : 0.0827762899,
          "estimated_diameter_max" : 0.1850934111
        },
        "feet" : {
          "estimated_diameter_min" : 437.0589598459,
          "estimated_diameter_max" : 977.2935443908
        }
      },
      "is_potentially_hazardous_asteroid" : true,
      "close_approach_data" : [ {
        "close_approach_date" : "2010-05-08",
        "epoch_date_close_approach" : 1273302000000,
        "relative_velocity" : {
          "kilometers_per_second" : "12.3121056467",
          "kilometers_per_hour" : "44323.5803279782",
          "miles_per_hour" : "27540.9491210151"
        },
        "miss_distance" : {
          "astronomical" : "0.2099890733",
          "lunar" : "81.6857452393",
          "kilometers" : "31413918",
          "miles" : "19519704"
        },
        "orbiting_body" : "Earth"
      } ],
      "orbital_data" : {
        "orbit_id" : "18",
        "orbit_determination_date" : "2017-09-15 06:21:35",
        "orbit_uncertainty" : "0",
        "minimum_orbit_intersection" : ".01411",
        "jupiter_tisserand_invariant" : "6.446",
        "epoch_osculation" : "2458000.5",
        "eccentricity" : ".1813806675112943",
        "semi_major_axis" : ".9184152432126922",
        "inclination" : "19.19209199647834",
        "ascending_node_longitude" : "224.1071100544303",
        "orbital_period" : "321.4822888578047",
        "perihelion_distance" : ".7518324733462264",
        "perihelion_argument" : "310.206264906074",
        "aphelion_distance" : "1.084998013079158",
        "perihelion_time" : "2457860.736677665225",
        "mean_anomaly" : "156.5087651306778",
        "mean_motion" : "1.11981285587783",
        "equinox" : "J2000"
      }
    }, {
      "links" : {
        "self" : "https://api.nasa.gov/neo/rest/v1/neo/3704144?api_key=t0TVs3DtDT2H8Oy2Zy8m2eVrNsAVKAexjcZXUckd"
      },
      "neo_reference_id" : "3704144",
      "name" : "(2015 AC246)",
      "nasa_jpl_url" : "http://ssd.jpl.nasa.gov/sbdb.cgi?sstr=3704144",
      "absolute_magnitude_h" : 23.4,
      "estimated_diameter" : {
        "kilometers" : {
          "estimated_diameter_min" : 0.0555334912,
          "estimated_diameter_max" : 0.1241766613
        },
        "meters" : {
          "estimated_diameter_min" : 55.5334911581,
          "estimated_diameter_max" : 124.1766612574
        },
        "miles" : {
          "estimated_diameter_min" : 0.0345069009,
          "estimated_diameter_max" : 0.0771597762
        },
        "feet" : {
          "estimated_diameter_min" : 182.1964991311,
          "estimated_diameter_max" : 407.4037573197
        }
      },
      "is_potentially_hazardous_asteroid" : false,
      "close_approach_data" : [ {
        "close_approach_date" : "2010-05-08",
        "epoch_date_close_approach" : 1273302000000,
        "relative_velocity" : {
          "kilometers_per_second" : "3.2101455595",
          "kilometers_per_hour" : "11556.524014049",
          "miles_per_hour" : "7180.7746019517"
        },
        "miss_distance" : {
          "astronomical" : "0.2636075086",
          "lunar" : "102.5433197021",
          "kilometers" : "39435120",
          "miles" : "24503848"
        },
        "orbiting_body" : "Earth"
      } ],
      "orbital_data" : {
        "orbit_id" : "8",
        "orbit_determination_date" : "2017-04-06 08:36:20",
        "orbit_uncertainty" : "6",
        "minimum_orbit_intersection" : ".194385",
        "jupiter_tisserand_invariant" : "4.689",
        "epoch_osculation" : "2458000.5",
        "eccentricity" : ".2088696702773702",
        "semi_major_axis" : "1.411882926164412",
        "inclination" : "9.899833400573284",
        "ascending_node_longitude" : "287.8736045446634",
        "orbital_period" : "612.768534657002",
        "perihelion_distance" : "1.116983404906203",
        "perihelion_argument" : "248.8014221129986",
        "aphelion_distance" : "1.706782447422622",
        "perihelion_time" : "2457713.273395984016",
        "mean_anomaly" : "168.7449201412298",
        "mean_motion" : ".5874975290653762",
        "equinox" : "J2000"
      }
    } ]
  }
}